{
  "type": "FeatureCollection",
  "features": [
    {
      "type": "Feature",
      "properties": {
        "norad_id": 38250,
        "name": "BEIDOU-2 M3 (C11)",
        "group": "beidou",
        "lat": -29.625898251478866,
        "lon": -71.78321529974545,
        "alt_km": 21486.821110136538,
        "timestamp": "2025-12-21T09:37:22.919767+00:00",
        "meta_object_name": "BEIDOU-2 M3 (C11)",
        "meta_object_id": "2012-018A",
        "meta_epoch": "2025-12-20T22:02:43.406880",
        "meta_mean_motion": 1.86230123,
        "meta_eccentricity": 0.0024114,
        "meta_inclination": 55.9133,
        "meta_ra_of_asc_node": 310.8827,
        "meta_arg_of_pericenter": 275.2065,
        "meta_mean_anomaly": 84.51,
        "meta_ephemeris_type": 0,
        "meta_classification_type": "U",
        "meta_norad_cat_id": 38250,
        "meta_element_set_no": 999,
        "meta_rev_at_epoch": 9262,
        "meta_bstar": 0,
        "meta_mean_motion_dot": -6.6e-07,
        "meta_mean_motion_ddot": 0,
        "tle_line1": "1 38250U 12018A   25354.91855795 -.00000066  00000+0  00000+0 0  9999",
        "tle_line2": "2 38250  55.9133 310.8827 0024114 275.2065  84.5100  1.86230123 92627"
      },
      "geometry": {
        "type": "Point",
        "coordinates": [
          -71.78321529974545,
          -29.625898251478866
        ]
      }
    },
    {
      "type": "Feature",
      "properties": {
        "norad_id": 38251,
        "name": "BEIDOU-2 M4 (C12)",
        "group": "beidou",
        "lat": 7.4119103042567955,
        "lon": -44.86084467606396,
        "alt_km": 21527.48893189219,
        "timestamp": "2025-12-21T09:37:22.919779+00:00",
        "meta_object_name": "BEIDOU-2 M4 (C12)",
        "meta_object_id": "2012-018B",
        "meta_epoch": "2025-12-20T20:24:53.726112",
        "meta_mean_motion": 1.86229788,
        "meta_eccentricity": 0.0015319,
        "meta_inclination": 55.8144,
        "meta_ra_of_asc_node": 310.113,
        "meta_arg_of_pericenter": 278.7848,
        "meta_mean_anomaly": 81.0336,
        "meta_ephemeris_type": 0,
        "meta_classification_type": "U",
        "meta_norad_cat_id": 38251,
        "meta_element_set_no": 999,
        "meta_rev_at_epoch": 9262,
        "meta_bstar": 0,
        "meta_mean_motion_dot": -6.6e-07,
        "meta_mean_motion_ddot": 0,
        "tle_line1": "1 38251U 12018B   25354.85062183 -.00000066  00000+0  00000+0 0  9994",
        "tle_line2": "2 38251  55.8144 310.1130 0015319 278.7848  81.0336  1.86229788 92621"
      },
      "geometry": {
        "type": "Point",
        "coordinates": [
          -44.86084467606396,
          7.4119103042567955
        ]
      }
    },
    {
      "type": "Feature",
      "properties": {
        "norad_id": 38775,
        "name": "BEIDOU-2 M6 (C14)",
        "group": "beidou",
        "lat": -18.785756900834464,
        "lon": -98.14385500897214,
        "alt_km": 21555.29457328926,
        "timestamp": "2025-12-21T09:37:22.919792+00:00",
        "meta_object_name": "BEIDOU-2 M6 (C14)",
        "meta_object_id": "2012-050B",
        "meta_epoch": "2025-12-21T02:21:46.465344",
        "meta_mean_motion": 1.86230924,
        "meta_eccentricity": 0.0011371,
        "meta_inclination": 56.3853,
        "meta_ra_of_asc_node": 68.7901,
        "meta_arg_of_pericenter": 343.4825,
        "meta_mean_anomaly": 16.5255,
        "meta_ephemeris_type": 0,
        "meta_classification_type": "U",
        "meta_norad_cat_id": 38775,
        "meta_element_set_no": 999,
        "meta_rev_at_epoch": 8999,
        "meta_bstar": 0,
        "meta_mean_motion_dot": -3.7e-07,
        "meta_mean_motion_ddot": 0,
        "tle_line1": "1 38775U 12050B   25355.09845446 -.00000037  00000+0  00000+0 0  9997",
        "tle_line2": "2 38775  56.3853  68.7901 0011371 343.4825  16.5255  1.86230924 89999"
      },
      "geometry": {
        "type": "Point",
        "coordinates": [
          -98.14385500897214,
          -18.785756900834464
        ]
      }
    },
    {
      "type": "Feature",
      "properties": {
        "norad_id": 38953,
        "name": "BEIDOU-2 G6 (C02)",
        "group": "beidou",
        "lat": -3.557189932584966,
        "lon": -41.627134060960024,
        "alt_km": 35764.830422532315,
        "timestamp": "2025-12-21T09:37:22.919804+00:00",
        "meta_object_name": "BEIDOU-2 G6 (C02)",
        "meta_object_id": "2012-059A",
        "meta_epoch": "2025-12-21T01:36:53.216640",
        "meta_mean_motion": 1.00268834,
        "meta_eccentricity": 0.000827,
        "meta_inclination": 3.9692,
        "meta_ra_of_asc_node": 75.4251,
        "meta_arg_of_pericenter": 292.3777,
        "meta_mean_anomaly": 190.2509,
        "meta_ephemeris_type": 0,
        "meta_classification_type": "U",
        "meta_norad_cat_id": 38953,
        "meta_element_set_no": 999,
        "meta_rev_at_epoch": 4812,
        "meta_bstar": 0,
        "meta_mean_motion_dot": -1.54e-06,
        "meta_mean_motion_ddot": 0,
        "tle_line1": "1 38953U 12059A   25355.06728260 -.00000154  00000+0  00000+0 0  9995",
        "tle_line2": "2 38953   3.9692  75.4251 0008270 292.3777 190.2509  1.00268834 48120"
      },
      "geometry": {
        "type": "Point",
        "coordinates": [
          -41.627134060960024,
          -3.557189932584966
        ]
      }
    },
    {
      "type": "Feature",
      "properties": {
        "norad_id": 40549,
        "name": "BEIDOU-3S IGSO-1S (C31)",
        "group": "beidou",
        "lat": 23.366913779428252,
        "lon": -40.82997717805796,
        "alt_km": 35923.9610054763,
        "timestamp": "2025-12-21T09:37:22.919816+00:00",
        "meta_object_name": "BEIDOU-3S IGSO-1S (C31)",
        "meta_object_id": "2015-019A",
        "meta_epoch": "2025-12-18T19:55:38.829792",
        "meta_mean_motion": 1.00292047,
        "meta_eccentricity": 0.0036331,
        "meta_inclination": 49.5404,
        "meta_ra_of_asc_node": 297.6395,
        "meta_arg_of_pericenter": 194.0028,
        "meta_mean_anomaly": 349.3621,
        "meta_ephemeris_type": 0,
        "meta_classification_type": "U",
        "meta_norad_cat_id": 40549,
        "meta_element_set_no": 999,
        "meta_rev_at_epoch": 3926,
        "meta_bstar": 0,
        "meta_mean_motion_dot": -1.83e-06,
        "meta_mean_motion_ddot": 0,
        "tle_line1": "1 40549U 15019A   25352.83031053 -.00000183  00000+0  00000+0 0  9999",
        "tle_line2": "2 40549  49.5404 297.6395 0036331 194.0028 349.3621  1.00292047 39264"
      },
      "geometry": {
        "type": "Point",
        "coordinates": [
          -40.82997717805796,
          23.366913779428252
        ]
      }
    },
    {
      "type": "Feature",
      "properties": {
        "norad_id": 40748,
        "name": "BEIDOU-3S M2S (C58)",
        "group": "beidou",
        "lat": -39.7669264856506,
        "lon": 163.72178632491494,
        "alt_km": 21507.040448101343,
        "timestamp": "2025-12-21T09:37:22.919827+00:00",
        "meta_object_name": "BEIDOU-3S M2S (C58)",
        "meta_object_id": "2015-037A",
        "meta_epoch": "2025-12-21T01:20:10.891968",
        "meta_mean_motion": 1.86229521,
        "meta_eccentricity": 0.0011954,
        "meta_inclination": 55.0313,
        "meta_ra_of_asc_node": 308.1781,
        "meta_arg_of_pericenter": 270.2821,
        "meta_mean_anomaly": 89.5753,
        "meta_ephemeris_type": 0,
        "meta_classification_type": "U",
        "meta_norad_cat_id": 40748,
        "meta_element_set_no": 999,
        "meta_rev_at_epoch": 7080,
        "meta_bstar": 0,
        "meta_mean_motion_dot": -6.4e-07,
        "meta_mean_motion_ddot": 0,
        "tle_line1": "1 40748U 15037A   25355.05568162 -.00000064  00000+0  00000+0 0  9991",
        "tle_line2": "2 40748  55.0313 308.1781 0011954 270.2821  89.5753  1.86229521 70800"
      },
      "geometry": {
        "type": "Point",
        "coordinates": [
          163.72178632491494,
          -39.7669264856506
        ]
      }
    },
    {
      "type": "Feature",
      "properties": {
        "norad_id": 40749,
        "name": "BEIDOU-3S M1S (C57)",
        "group": "beidou",
        "lat": 53.2815678004575,
        "lon": 17.76206669242468,
        "alt_km": 21517.249043400847,
        "timestamp": "2025-12-21T09:37:22.919852+00:00",
        "meta_object_name": "BEIDOU-3S M1S (C57)",
        "meta_object_id": "2015-037B",
        "meta_epoch": "2025-12-19T03:17:32.841888",
        "meta_mean_motion": 1.86254044,
        "meta_eccentricity": 0.0003631,
        "meta_inclination": 55.0296,
        "meta_ra_of_asc_node": 308.2337,
        "meta_arg_of_pericenter": 1.0538,
        "meta_mean_anomaly": 358.9355,
        "meta_ephemeris_type": 0,
        "meta_classification_type": "U",
        "meta_norad_cat_id": 40749,
        "meta_element_set_no": 999,
        "meta_rev_at_epoch": 7077,
        "meta_bstar": 0,
        "meta_mean_motion_dot": -7.8e-07,
        "meta_mean_motion_ddot": 0,
        "tle_line1": "1 40749U 15037B   25353.13718567 -.00000078  00000+0  00000+0 0  9990",
        "tle_line2": "2 40749  55.0296 308.2337 0003631   1.0538 358.9355  1.86254044 70772"
      },
      "geometry": {
        "type": "Point",
        "coordinates": [
          17.76206669242468,
          53.2815678004575
        ]
      }
    }
  ]
}